[{"OBJECT_NAME":"LEMUR-2-ANDIS","OBJECT_ID":"2017-042P","EPOCH":"2026-03-09T13:25:33.116448","MEAN_MOTION":15.30557934,"ECCENTRICITY":0.0009101,"INCLINATION":97.3659,"RA_OF_ASC_NODE":249.795,"ARG_OF_PERICENTER":4.3248,"MEAN_ANOMALY":355.807,"EPHEMERIS_TYPE":0,"CLASSIFICATION_TYPE":"U","NORAD_CAT_ID":42838,"ELEMENT_SET_NO":999,"REV_AT_EPOCH":47319,"BSTAR":0.00079875,"MEAN_MOTION_DOT":0.00023598,"MEAN_MOTION_DDOT":0},{"OBJECT_NAME":"STARLINK-32930","OBJECT_ID":"2025-048W","EPOCH":"2026-03-09T01:34:33.903552","MEAN_MOTION":15.27604161,"ECCENTRICITY":0.0003608,"INCLINATION":43.0008,"RA_OF_ASC_NODE":89.1017,"ARG_OF_PERICENTER":284.5445,"MEAN_ANOMALY":75.5006,"EPHEMERIS_TYPE":0,"CLASSIFICATION_TYPE":"U","NORAD_CAT_ID":63203,"ELEMENT_SET_NO":999,"REV_AT_EPOCH":5699,"BSTAR":0.0015741537,"MEAN_MOTION_DOT":0.00043347,"MEAN_MOTION_DDOT":0}]
